#aV2011  7  8  0  0   .00000000      96 DD+AD WGS84 FIT  NGA
## 1643 432000.00000000   900.00000000 55750  .0000000000000
+   32     1  2  3  4  5  6  7  8  9 10 11 12 13 14 15 16 17
+         18 19 20 21 22 23 24 25 26 27 28 29 30 31 32  0  0
+          0  0  0  0  0  0  0  0  0  0  0  0  0  0  0  0  0
+          0  0  0  0  0  0  0  0  0  0  0  0  0  0  0  0  0
+          0  0  0  0  0  0  0  0  0  0  0  0  0  0  0  0  0
++         0  0  0  0  0  0  0  0  0  0  0  0  0  0  0  0  0
++         0  0  0  0  0  0  0  0  0  0  0  0  0  0  0  0  0
++         0  0  0  0  0  0  0  0  0  0  0  0  0  0  0  0  0
++         0  0  0  0  0  0  0  0  0  0  0  0  0  0  0  0  0
++         0  0  0  0  0  0  0  0  0  0  0  0  0  0  0  0  0
%c cc cc ccc ccc cccc cccc cccc cccc ccccc ccccc ccccc ccccc
%c cc cc ccc ccc cccc cccc cccc cccc ccccc ccccc ccccc ccccc
%f  0.0000000  0.000000000  0.00000000000  0.000000000000000
%f  0.0000000  0.000000000  0.00000000000  0.000000000000000
%i    0    0    0    0      0      0      0      0         0
%i    0    0    0    0      0      0      0      0         0
/*      NGA, ST. LOUIS,MO.                                  
/*   EPHEMERIS COMPUTED FROM  3 DAYS OF DATA                
/* CCCCCCCCCCCCCCCCCCCCCCCCCCCCCCCCCCCCCCCCCCCCCCCCCCCCCCCCC
/* CCCCCCCCCCCCCCCCCCCCCCCCCCCCCCCCCCCCCCCCCCCCCCCCCCCCCCCCC
*  2011  7  8  5 45   .00000000                                                 
P  1 -13020.239099 -22391.910873  -6327.786144     95.314088                    
V  1   6985.886193   4003.850551 -30257.225502       .015167                    
P  2  14367.301800 -14001.276735  17220.127349    345.543744                    
V  2  22134.377639    319.319809 -18759.378913       .018352                    
P  3 -10231.926098  24100.232325   2866.699879    738.963692                    
V  3  -2562.503067  -5274.238567  30957.991162       .049096                    
P  4  25280.761899  -6234.807739   5882.026715    166.019807                    
V  4   7906.005670   2572.515369 -29822.467715       .108745                    
P  5   4298.511556 -17798.907977  19189.891357   -186.130549                    
V  5  15040.210895  19333.952616  14658.596073      -.055442                    
P  6 -14374.904287  21084.164078   7052.654009     37.326190                    
V  6    103.677965  -9541.004435  29603.076837      -.843473                    
P  7  23106.994473   6402.681032  11668.049079     17.084461                    
V  7 -14555.217600   2825.639765  27058.934504       .014319                    
P  8  26695.924822   1853.278673   2442.380816      8.426625                    
V  8  -3021.578020   1170.448584  31953.105845       .000680                    
P  9  -5581.871796 -14325.602942 -22214.847970     91.330290                    
V  9  26666.983459  -2805.226050  -5029.471119       .024979                    
P 10  16391.624000  -1978.506026  20658.429381     -6.039529                    
V 10  13966.265116  22759.918450  -8439.894687      -.012631                    
P 11   4215.365878  16419.429499 -20762.222542   -166.177117                    
V 11 -24715.006189   8076.850450   1744.045822      -.033070                    
P 12 -11227.890370 -23586.576060  -5286.652232      7.677864                    
V 12   5453.166991   4417.640320 -31034.396738       .025500                    
P 13  10022.021168  11173.638690  21759.439216    262.115643                    
V 13 -14434.214118  23885.412663  -5648.959700      -.017234                    
P 14 -17922.643826   8132.969423 -17600.996709    160.391609                    
V 14   9753.250707 -20521.458194 -19378.980143       .021052                    
P 15   2138.827855 -23914.336266 -11166.304134   -117.130191                    
V 15   8514.683786 -11798.408636  27046.832001       .020946                    
P 16  -4504.667738  17433.365144  19435.860662   -184.033306                    
V 16 -14242.142696 -20217.903041  15141.706290      -.024700                    
P 17  18035.925194  -8814.939092 -17136.243121    182.702993                    
V 17  -8503.636313  20505.562711 -19558.709297      -.005305                    
P 18 -19522.385377 -13609.163580 -11843.667794    146.104137                    
V 18  -6115.259214 -14502.151750  25649.809832       .019104                    
P 19  -6675.638630  23863.387556  -9057.521203   -159.696190                    
V 19  -8382.805358   8528.051286  29030.100860      -.041487                    
P 20  13735.188432  22560.720099  -3236.749983     50.512945                    
V 20  -5240.074292  -1031.626141 -30723.028239       .003223                    
P 21 -24708.737676  -5404.150641   9478.732288   -156.396724                    
V 21  11094.509738  -3540.765258  27567.579639      -.025732                    
P 22 -17876.510348   -791.893957 -19483.653414    146.540706                    
V 22 -12579.597420 -21888.460965  12207.653139      -.002389                    
P 23   3329.258998  19940.607395  17043.825628    293.499067                    
V 23 -11352.508808  18661.611433 -19972.620558      -.028530                    
P 24   9478.582496  14350.738856 -20259.944192    404.864795                    
V 24 -25785.857511   1530.863793 -10657.765968       .031295                    
P 25 -18123.233226 -18440.016329   6117.006189      7.946708                    
V 25  -2368.963389  -7855.397612 -30547.058342       .019278                    
P 26  12038.366986 -23386.570855  -1983.851728    -84.146872                    
V 26   2885.397822   -423.465029  32468.570730      -.118851                    
P 27    643.975596 -14583.749579 -21519.569150    282.541835                    
V 27  28708.237635  -3078.877253   3191.626508       .037335                    
P 28  18069.463624   5685.757907 -18204.799214     50.320656                    
V 28  11613.655974  21113.720985  17378.198213       .028308                    
P 29  -9974.796597 -12701.945955  21169.687320    221.451711                    
V 29  13058.254299 -23289.460188  -7802.547026       .030620                    
P 30 -11596.406375   9547.317303  21488.577509     20.827526                    
V 30 -16997.191563 -22608.513646    875.356489       .043076                    
P 31 -23858.960891   7759.297234   9236.303462    107.567008                    
V 31 -11452.344890  -1067.505900 -29110.650707       .059471                    
P 32   6142.675638  24259.153452  -9227.831746   -287.606297                    
V 32  -8024.995241  -9240.793561 -28359.770422      -.070970                    
EOF
